satname,norad_id,inclination_deg,eccentricity,mean_motion_rev_per_day,perigee_km,apogee_km,l1,l2
STARLINK-1457,45674,53.0475,0.000985,15.768308,332.80966868575706,346.0432687191005,1 45674U 20035T   26062.91670139  .00190593  00000+0  11344-2 0  9999,2 45674  53.0475  51.3023 0009850  46.5033  31.3240 15.76830800  5960
STARLINK-1458,45675,53.0529,0.0006166,15.42230265,435.32479510150733,443.7323402795837,1 45675U 20035U   26062.32945982  .00081111  00000+0  18483-2 0  9992,2 45675  53.0529  85.6872 0006166  54.9791 305.1792 15.42230265317876
STARLINK-1460,45676,53.1305,0.0001249,15.23963948,493.0399437859887,494.75657819418393,1 45676U 20035V   26062.91670139  .00882304  00000+0  33434-1 0  9992,2 45676  53.1305  91.6060 0001249  75.4308  11.2291 15.23963948  5834
STARLINK-1392,45677,53.1526,0.0003953,15.29340941,475.0711208526618,480.49140983324287,1 45677U 20035W   26062.91670139  .00115026  00000+0  39384-2 0  9994,2 45677  53.1526  91.5461 0003953 105.8352 312.6738 15.29340941  5781
STARLINK-1394,45679,53.0505,0.0002303,15.48578292,419.3184056651671,422.4500348392148,1 45679U 20035Y   26062.29466497  .00087679  00000+0  16073-2 0  9999,2 45679  53.0505  67.2155 0002303  92.0056 268.1215 15.48578292318162
STARLINK-1402,45685,53.0492,7.42e-05,15.43646848,434.85138437290243,435.8625068744341,1 45685U 20035AE  26062.37696493  .00079628  00000+0  17316-2 0  9992,2 45685  53.0492  53.4244 0000742 240.5349 119.5582 15.43646848318377
STARLINK-1404,45686,53.1612,0.0001715,15.30162855,474.150611036428,476.5013488385466,1 45686U 20035AF  26062.36035676  .00021723  00000+0  74426-3 0  9991,2 45686  53.1612  79.0982 0001715 102.4251 257.6942 15.30162855318006
STARLINK-1413,45689,53.1608,0.0001456,15.30207573,474.19461313054944,476.1903026686896,1 45689U 20035AJ  26062.43194771  .00001205  00000+0  52787-4 0  9994,2 45689  53.1608  78.6450 0001456  86.4750 273.6418 15.30207573317930
STARLINK-1417,45693,53.0505,0.0002417,15.1208711,528.1663811696253,531.5056953363155,1 45693U 20035AN  26062.31968639  .00032117  00000+0  18534-2 0  9994,2 45693  53.0505  83.1715 0002417 219.2894 140.7922 15.12087110317935
STARLINK-1420,45695,53.0548,0.000354,15.52169394,407.9902138531161,412.7964933434632,1 45695U 20035AQ  26062.24203728  .00104834  00000+0  16871-2 0  9997,2 45695  53.0548  53.4877 0003540  72.6728 287.4668 15.52169394318350
STARLINK-1422,45696,53.1609,0.0001388,15.30200699,474.2617373545663,476.1642273096613,1 45696U 20035AR  26062.50464343  .00000726  00000+0  36624-4 0  9994,2 45696  53.1609  78.3105 0001388  89.4204 270.6955 15.30200699318020
STARLINK-1351,45697,53.0532,0.0003171,15.50905842,411.9262028722369,416.2338269030788,1 45697U 20035AS  26062.34246193  .00129803  00000+0  21766-2 0  9995,2 45697  53.0532  52.1550 0003171  72.1344 288.0010 15.50905842318383
STARLINK-1398,45699,53.0381,0.0004214,15.91148333,296.25452257374945,301.88207119796516,1 45699U 20035AU  26062.75002314  .00270527  38278-4  84140-3 0  9996,2 45699  53.0381 329.5942 0004214 137.0256 248.7469 15.91148333  6020
STARLINK-1400,45700,53.0518,0.0007585,15.49175562,413.9808436760122,424.2923076903244,1 45700U 20035AV  26062.81998223  .00116576  00000+0  20807-2 0  9998,2 45700  53.0518  51.1182 0007585  68.4000 291.7815 15.49175562318438
STARLINK-1403,45701,53.0561,0.000217,15.07390603,542.6750230194457,545.6793073671397,1 45701U 20035AW  26062.76858652  .00123396  00000+0  79437-2 0  9995,2 45701  53.0561  63.1895 0002170  57.7180 302.4019 15.07390603318251
STARLINK-1407,45703,53.0359,0.0011385,15.58332009,384.77580064192534,400.1925050069058,1 45703U 20035AY  26062.80124009  .00137479  00000+0  17509-2 0  9993,2 45703  53.0359 344.4164 0011385  82.1654 278.0650 15.58332009319373
STARLINK-1411,45706,53.046,0.0005435,15.60556786,382.3713535065299,389.7240222622613,1 45706U 20035BB  26062.10037397  .00103525  00000+0  12208-2 0  9998,2 45706  53.0460  13.6001 0005435  99.5048 260.6579 15.60556786318898
STARLINK-1423,45710,53.0518,0.000692,15.51342512,408.1060463137974,417.5047105655576,1 45710U 20035BF  26062.34562055  .00102911  00000+0  17053-2 0  9994,2 45710  53.0518  52.5503 0006920  79.5546 280.6243 15.51342512318369
STARLINK-1433,45711,53.0513,0.0006991,15.53426754,401.9864202171848,411.4730208658466,1 45711U 20035BG  26062.50738083  .00106907  00000+0  16426-2 0  9991,2 45711  53.0513  50.9056 0006991  73.3779 286.7998 15.53426754318400
STARLINK-1434,45712,53.0565,0.0004961,15.25931606,484.58313817215185,491.39570880954034,1 45712U 20035BH  26062.34818584  .00057957  00000+0  22243-2 0  9993,2 45712  53.0565  49.3913 0004961  61.3563 298.7933 15.25931606318425
STARLINK-1465,45731,53.0523,0.0003147,15.48780889,418.1518191219211,422.4307498841863,1 45731U 20038B   26062.71056847  .00097859  00000+0  17779-2 0  9997,2 45731  53.0523 251.8258 0003147 223.0020 137.0742 15.48780889315455
STARLINK-1471,45735,53.0474,0.0001491,15.48501046,420.0965605250476,422.12409607834707,1 45735U 20038F   26062.70928169  .00037274  00000+0  69430-3 0  9992,2 45735  53.0474 170.6674 0001491 202.1631 157.9312 15.48501046316608
STARLINK-1480,45741,53.0509,0.0008139,15.47063091,419.78548926077747,430.8601611642589,1 45741U 20038M   26062.72388620  .00055665  00000+0  10820-2 0  9995,2 45741  53.0509 245.7659 0008139 158.9324 201.2019 15.47063091315556
STARLINK-1500,45744,53.0372,0.000199,15.34374368,461.418082604785,464.1407673419244,1 45744U 20038Q   26062.75113179  .00035235  00000+0  10498-2 0  9998,2 45744  53.0372 220.6015 0001990 215.2299 144.8571 15.34374368315903
STARLINK-1504,45746,53.0239,0.0001379,15.52693886,407.9285862758434,409.8004412933442,1 45746U 20038S   26062.70150934  .00043409  00000+0  69533-3 0  9992,2 45746  53.0239 171.0660 0001379 168.3446 191.7594 15.52693886316585
STARLINK-1506,45747,53.0749,0.0002742,15.25826202,486.4228490686464,490.1884062056424,1 45747U 20038T   26062.70026454  .00011079  00000+0  44007-3 0  9999,2 45747  53.0749 230.0630 0002742 198.5780 161.5118 15.25826202315773
STARLINK-1464,45751,53.0511,0.00028,15.43069049,435.14945074581556,438.9659597807631,1 45751U 20038X   26062.73993013  .00047975  00000+0  10717-2 0  9995,2 45751  53.0511 232.8975 0002800 206.1244 153.9620 15.43069049315730
STARLINK-1477,45754,53.0485,0.0001466,15.13916621,523.2576744301714,525.2814600356842,1 45754U 20038AA  26062.75864026  .00040852  00000+0  22331-2 0  9993,2 45754  53.0485 239.9130 0001466  78.0289 282.0867 15.13916621315636
STARLINK-1478,45755,53.052,0.0004828,15.53650106,402.8040257861703,409.354865185931,1 45755U 20038AB  26062.71781824  .00118036  00000+0  17965-2 0  9991,2 45755  53.0520 226.7306 0004828 197.5841 162.5002 15.53650106315801
STARLINK-1484,45756,52.9982,0.000699,15.9766658,276.2399118909734,285.5492380327696,1 45756U 20038AC  26062.75002314  .00373277  68346-4  81516-3 0  9992,2 45756  52.9982  87.3062 0006990  36.7041 178.1878 15.97666580  6037
STARLINK-1493,45759,53.0524,0.000149,15.49074854,418.4183364037517,420.4440117196218,1 45759U 20038AF  26062.75002314  .00062571  00000+0  11333-2 0  9994,2 45759  53.0524 232.9848 0001490  72.3313 152.9353 15.49074854  5909
STARLINK-1494,45760,53.049,0.0003898,15.72382839,349.4655030019949,354.7123871487747,1 45760U 20038AG  26062.71559423  .00114138  00000+0  83481-3 0  9991,2 45760  53.0490 181.2935 0003898 338.4271  21.6581 15.72382839316450
STARLINK-1502,45764,53.0534,0.0001237,15.45978292,427.6630890300312,429.3470522783109,1 45764U 20038AL  26062.74121007  .00102908  00000+0  20586-2 0  9999,2 45764  53.0534 234.4394 0001237  37.8172 322.2921 15.45978292315718
STARLINK-1470,45772,53.047,2.04e-05,15.27358941,483.5711243444266,483.85108774715263,1 45772U 20038AU  26062.65572593  .00065692  00000+0  24112-2 0  9995,2 45772  53.0470 202.3128 0000204 140.1273 219.9740 15.27358941316151
STARLINK-1482,45773,53.1603,9.47e-05,15.30192698,474.5878574561548,475.88588646750486,1 45773U 20038AV  26062.80266548  .00003975  00000+0  14629-3 0  9992,2 45773  53.1603 218.3599 0000947 103.5701 256.5406 15.30192698315944
STARLINK-1496,45780,53.0515,0.0004181,15.46826358,423.1721446929514,428.8617782355277,1 45780U 20038BC  26062.75002314  .00142606  00000+0  27528-2 0  9999,2 45780  53.0515 206.2188 0004181 188.1503  88.2653 15.46826358  5861
STARLINK-1513,45786,53.1616,0.0001152,15.30202048,474.4194490133441,475.9984599212539,1 45786U 20038BJ  26062.68154130  .00011630  00000+0  40415-3 0  9994,2 45786  53.1616 219.0556 0001152  73.8847 286.2281 15.30202048315922
STARLINK-1522,46027,53.0638,0.0001573,15.0889782,538.478507212908,540.6548167849724,1 46027U 20055A   26062.75002314  .00048432  00000+0  30353-2 0  9995,2 46027  53.0638 153.2475 0001573  59.6501  99.3988 15.08897820  5802
STARLINK-1523,46028,53.0729,0.0001303,15.11498859,530.7278941348322,532.5285789554755,1 46028U 20055B   26062.75002314  .00107911  00000+0  62230-2 0  9993,2 46028  53.0729 153.2256 0001303  47.5051  44.1771 15.11498859  5562
STARLINK-1526,46029,53.0753,0.0001997,15.11989351,528.7542140774785,531.5133774333044,1 46029U 20055C   26062.75002314  .00110197  00000+0  62666-2 0  9997,2 46029  53.0753 153.2081 0001997  68.8926  71.8698 15.11989351  5671
STARLINK-1555,46032,53.0688,0.0002088,15.10599166,532.9282093718057,535.814872938593,1 46032U 20055F   26062.75002314  .00111210  00000+0  65711-2 0  9992,2 46032  53.0688 153.2499 0002088  81.9499 115.8370 15.10599166  5809
STARLINK-1556,46033,53.0733,8.85e-05,15.11695781,530.4166924624287,531.6396146946117,1 46033U 20055G   26062.75002314  .00104479  00000+0  59957-2 0  9997,2 46033  53.0733 153.2276 0000885 105.6800 205.9045 15.11695781  5752
STARLINK-1557,46034,53.0772,7.29e-05,15.12665682,527.5709988815161,528.5779245126314,1 46034U 20055H   26062.75002314  .00106930  00000+0  59707-2 0  9995,2 46034  53.0772 153.1970 0000729 102.0701 205.7633 15.12665682  5809
